{"type": "FeatureCollection",
 "source": "geoBoundaries gbOpen IRQ ADM1 (boundaryID IRQ-ADM1-90741666, 2022 edition, built 2023-12-12), https://www.geoboundaries.org",
 "license": "CC0 1.0 Universal (public domain)",
 "features": [
  {"type":"Feature","properties":{"code":"BAS","name":"Basrah","governorate":"Al-Basrah","iso":"IQ-BA"},"geometry":{"type":"Polygon","coordinates":[[[46.571063,29.063601],[46.599592,29.071799],[46.614618,29.082743],[46.634654,29.102439],[46.652185,29.117755],[46.664707,29.128694],[46.682237,29.144007],[46.699768,29.165878],[46.71229,29.178999],[46.739839,29.211792],[46.804954,29.307927],[46.832502,29.338496],[46.855042,29.364691],[46.86506,29.382151],[46.870068,29.408335],[46.902626,29.480305],[46.910139,29.502105],[46.920157,29.530436],[46.935183,29.563117],[46.960227,29.591432],[47.005307,29.676329],[47.010315,29.69591],[47.015324,29.728538],[47.025342,29.754632],[47.03536,29.776372],[47.045377,29.79376],[47.060404,29.819837],[47.082943,29.85894],[47.105483,29.9371],[47.173102,30.023873],[47.200651,30.03905],[47.238217,30.049889],[47.273279,30.05856],[47.30834,30.06723],[47.340898,30.082401],[47.363438,30.097569],[47.390986,30.106236],[47.731586,30.091069],[47.954479,29.99568],[47.996553,29.988999],[48.007773,29.99594],[48.025404,30.008433],[48.051049,30.019536],[48.067077,30.030638],[48.111956,30.0348],[48.134396,30.0348],[48.164849,30.02925],[48.185686,30.026475],[48.198509,30.026475],[48.228962,30.020923],[48.264224,30.005657],[48.309103,29.980669],[48.361997,29.948732],[48.41489,29.916784],[48.475797,29.914006],[48.499839,29.916784],[48.530293,29.912617],[48.563952,29.900112],[48.583186,29.901502],[48.607229,29.914006],[48.607229,29.919563],[48.587995,29.927898],[48.563952,29.945954],[48.543116,29.955676],[48.522279,29.965396],[48.501442,29.973727],[48.48862,29.980669],[48.474194,29.987611],[48.458166,29.99594],[48.448549,30.009821],[48.443741,30.05145],[48.437329,30.073646],[48.429315,30.091676],[48.416493,30.104156],[48.398862,30.111089],[48.386039,30.127726],[48.389245,30.142974],[48.398862,30.155448],[48.413287,30.16792],[48.413287,30.181777],[48.408479,30.201172],[48.397259,30.210869],[48.310706,30.296709],[48.28987,30.317466],[48.272238,30.335451],[48.248196,30.335451],[48.228962,30.329917],[48.214537,30.323],[48.201714,30.331301],[48.195303,30.340984],[48.188892,30.35205],[48.185686,30.368646],[48.171261,30.4198],[48.15363,30.437767],[48.140807,30.444676],[48.103942,30.45573],[48.089517,30.46402],[48.05746,30.486122],[48.052652,30.497171],[48.04624,30.508219],[48.035021,30.568961],[48.038226,30.595179],[48.043035,30.615872],[48.047843,30.643456],[48.047843,30.66276],[48.030212,31.005451],[48.014184,31.015067],[47.70003,31.009572],[47.698428,31.038416],[47.698428,31.050776],[47.698428,31.069998],[47.701633,31.094706],[47.704839,31.120781],[47.708045,31.146848],[47.706442,31.171537],[47.703236,31.189363],[47.698428,31.278446],[47.677591,31.281186],[47.639123,31.285295],[47.613478,31.286665],[47.578216,31.286665],[47.531734,31.288035],[47.499678,31.289404],[47.482046,31.294883],[47.448387,31.298992],[47.403508,31.300361],[47.369849,31.300361],[47.332984,31.297622],[47.294516,31.292144],[47.252843,31.285295],[47.223992,31.272966],[47.198347,31.253785],[47.169496,31.227748],[47.13804,31.162108],[47.130527,30.865907],[47.133032,30.833656],[47.123014,30.801394],[47.110492,30.775577],[47.107988,30.743295],[47.107988,30.723921],[47.095465,30.704543],[47.082943,30.674392],[47.090457,30.661467],[47.09797,30.650695],[47.105483,30.633457],[47.105483,30.611906],[47.09797,30.594661],[47.050386,30.60544],[47.017829,30.635612],[46.995289,30.644231],[46.960227,30.644231],[46.907635,30.631302],[46.84252,30.60544],[46.727317,30.566632],[46.594583,30.534281],[46.575647,30.511378],[46.584465,30.502696],[46.600493,30.486122],[46.605302,30.462638],[46.605302,30.437767],[46.606905,30.400448],[46.611713,30.374178],[46.624536,30.356199],[46.627741,30.343751],[46.638961,30.314698],[46.656592,30.285637],[46.677429,30.256567],[46.719102,30.208098],[46.74635,30.160991],[46.744748,30.040351],[46.735131,30.012596],[46.730322,29.986223],[46.712691,29.884827],[46.701471,29.822271],[46.688649,29.780545],[46.680635,29.758284],[46.671018,29.730451],[46.654989,29.646906],[46.645373,29.58002],[46.646975,29.443323],[46.651784,29.427968],[46.654989,29.416799],[46.653387,29.398648],[46.64377,29.376302],[46.622933,29.349761],[46.611713,29.338584],[46.590877,29.31343],[46.573245,29.152581],[46.571063,29.063601]]]}},
  {"type":"Feature","properties":{"code":"NAS","name":"Nasiriyah","governorate":"Dhi Qar","iso":"IQ-DQ"},"geometry":{"type":"Polygon","coordinates":[[[45.774591,31.646217],[45.795876,31.632571],[45.797479,31.616193],[45.787862,31.597082],[45.781451,31.576602],[45.779848,31.549288],[45.779848,31.527431],[45.779848,31.506935],[45.779848,31.489168],[45.779848,31.471398],[45.779848,31.45636],[45.770231,31.435848],[45.757408,31.413965],[45.74138,31.397549],[45.728557,31.382498],[45.725352,31.367445],[45.747791,31.360602],[45.759011,31.351021],[45.762217,31.333225],[45.750997,31.315425],[45.742983,31.301731],[45.742983,31.277076],[45.750997,31.245564],[45.762217,31.23323],[45.768628,31.214041],[45.762217,31.145476],[45.762217,31.127641],[45.742983,31.109803],[45.71894,31.093334],[45.710926,31.075489],[45.707721,31.054895],[45.701309,31.03567],[45.69009,31.015067],[45.669253,30.999955],[45.640402,30.987589],[45.635594,30.975222],[45.635594,30.949108],[45.635594,30.924361],[45.638799,30.870722],[45.650019,30.855588],[45.672459,30.840451],[45.810301,30.830817],[45.920896,30.8143],[46.005846,30.804664],[46.090796,30.803287],[46.204596,30.80191],[46.249475,30.79778],[46.289546,30.768863],[46.324808,30.745448],[46.361673,30.722027],[46.388921,30.699978],[46.408155,30.680681],[46.462651,30.611733],[46.483487,30.578621],[46.497913,30.55654],[46.509133,30.538595],[46.523558,30.523408],[46.557217,30.516505],[46.573245,30.513743],[46.575647,30.511378],[46.594583,30.534281],[46.727317,30.566632],[46.84252,30.60544],[46.907635,30.631302],[46.960227,30.644231],[46.995289,30.644231],[47.017829,30.635612],[47.050386,30.60544],[47.09797,30.594661],[47.105483,30.611906],[47.105483,30.633457],[47.09797,30.650695],[47.090457,30.661467],[47.082943,30.674392],[47.095465,30.704543],[47.107988,30.723921],[47.107988,30.743295],[47.110492,30.775577],[47.123014,30.801394],[47.133032,30.833656],[47.130527,30.865907],[47.13804,31.162108],[47.066082,31.159412],[46.999404,31.154145],[46.991198,31.150634],[46.976836,31.138343],[46.89272,31.140099],[46.863998,31.146244],[46.846559,31.15239],[46.836301,31.165557],[46.82912,31.176089],[46.819888,31.191009],[46.805527,31.203293],[46.785011,31.208557],[46.773727,31.217331],[46.766546,31.22698],[46.761417,31.241891],[46.760391,31.253292],[46.759365,31.32605],[46.750133,31.338317],[46.736798,31.347078],[46.718333,31.355839],[46.695765,31.364598],[46.680378,31.375109],[46.635243,31.40313],[46.632165,31.404881],[46.616778,31.418013],[46.607546,31.432019],[46.605494,31.442522],[46.603443,31.453898],[46.603443,31.467024],[46.609598,31.478397],[46.614727,31.48802],[46.61883,31.496767],[46.61883,31.505514],[46.619856,31.530873],[46.615752,31.54661],[46.609598,31.562345],[46.598314,31.576329],[46.588056,31.582446],[46.563436,31.596427],[46.548049,31.612153],[46.535739,31.623509],[46.53061,31.635737],[46.526507,31.64709],[46.501888,31.668046],[46.484449,31.681141],[46.469062,31.693362],[46.455726,31.709944],[46.44752,31.732631],[46.437262,31.811991],[46.430081,31.837267],[46.423926,31.854695],[46.412643,31.879959],[46.381868,31.926114],[46.360326,31.935691],[46.33981,31.947007],[46.32032,31.959193],[46.316217,31.971376],[46.32032,31.980078],[46.349043,31.982688],[46.373662,31.985299],[46.376739,31.988779],[46.374688,32.003568],[46.368533,32.012267],[46.354172,32.014876],[46.330578,32.014876],[46.317242,32.013137],[46.227997,32.010527],[46.077204,32.010527],[45.837165,32.007918],[45.776642,32.007918],[45.750997,32.004438],[45.738687,31.996609],[45.709682,31.993152],[45.714068,31.985299],[45.717145,31.951359],[45.721249,31.875604],[45.728429,31.867764],[45.740739,31.854695],[45.754074,31.839881],[45.759203,31.828552],[45.765358,31.803273],[45.769461,31.786708],[45.774591,31.753568],[45.777668,31.731758],[45.781771,31.717798],[45.783823,31.706453],[45.783823,31.693362],[45.783823,31.682887],[45.783823,31.670665],[45.783823,31.663681],[45.782797,31.654949],[45.778694,31.64971],[45.774591,31.646217]]]}},
  {"type":"Feature","properties":{"code":"SAM","name":"Samawah","governorate":"Al-Muthanna","iso":"IQ-MU"},"geometry":{"type":"Polygon","coordinates":[[[43.813614,29.850955],[43.914862,29.765502],[44.727241,29.135334],[44.965229,29.114724],[45.349421,29.084658],[45.482468,29.074398],[45.666385,29.064138],[46.026395,29.026507],[46.45684,28.99913],[46.570322,29.03335],[46.571063,29.063601],[46.573245,29.152581],[46.590877,29.31343],[46.611713,29.338584],[46.622933,29.349761],[46.64377,29.376302],[46.653387,29.398648],[46.654989,29.416799],[46.651784,29.427968],[46.646975,29.443323],[46.645373,29.58002],[46.654989,29.646906],[46.671018,29.730451],[46.680635,29.758284],[46.688649,29.780545],[46.701471,29.822271],[46.712691,29.884827],[46.730322,29.986223],[46.735131,30.012596],[46.744748,30.040351],[46.74635,30.160991],[46.719102,30.208098],[46.677429,30.256567],[46.656592,30.285637],[46.638961,30.314698],[46.627741,30.343751],[46.624536,30.356199],[46.611713,30.374178],[46.606905,30.400448],[46.605302,30.437767],[46.605302,30.462638],[46.600493,30.486122],[46.584465,30.502696],[46.575647,30.511378],[46.573245,30.513743],[46.557217,30.516505],[46.523558,30.523408],[46.509133,30.538595],[46.497913,30.55654],[46.483487,30.578621],[46.462651,30.611733],[46.408155,30.680681],[46.388921,30.699978],[46.361673,30.722027],[46.324808,30.745448],[46.289546,30.768863],[46.249475,30.79778],[46.204596,30.80191],[46.090796,30.803287],[46.005846,30.804664],[45.920896,30.8143],[45.810301,30.830817],[45.672459,30.840451],[45.650019,30.855588],[45.638799,30.870722],[45.635594,30.924361],[45.635594,30.949108],[45.635594,30.975222],[45.640402,30.987589],[45.669253,30.999955],[45.69009,31.015067],[45.701309,31.03567],[45.707721,31.054895],[45.710926,31.075489],[45.71894,31.093334],[45.742983,31.109803],[45.762217,31.127641],[45.762217,31.145476],[45.768628,31.214041],[45.762217,31.23323],[45.750997,31.245564],[45.742983,31.277076],[45.742983,31.301731],[45.750997,31.315425],[45.762217,31.333225],[45.759011,31.351021],[45.747791,31.360602],[45.725352,31.367445],[45.728557,31.382498],[45.74138,31.397549],[45.757408,31.413965],[45.770231,31.435848],[45.779848,31.45636],[45.779848,31.471398],[45.779848,31.489168],[45.779848,31.506935],[45.779848,31.527431],[45.779848,31.549288],[45.781451,31.576602],[45.787862,31.597082],[45.797479,31.616193],[45.795876,31.632571],[45.774591,31.646217],[45.752023,31.647963],[45.717338,31.656259],[45.597126,31.693962],[45.49134,31.72396],[45.456077,31.730777],[45.391964,31.744408],[45.363114,31.751223],[45.324646,31.751223],[45.302206,31.756675],[45.292589,31.766214],[45.25893,31.77439],[45.241299,31.767577],[45.230079,31.744408],[45.217257,31.721234],[45.194817,31.710326],[45.165966,31.708962],[45.124293,31.711689],[45.085825,31.713053],[45.064988,31.711689],[45.055372,31.703508],[45.056974,31.693962],[45.0714,31.683051],[45.089031,31.663954],[45.098648,31.653039],[45.105059,31.640759],[45.119484,31.627112],[45.13391,31.616193],[45.138718,31.603908],[45.130704,31.587525],[45.119484,31.569774],[45.073003,31.524698],[45.06018,31.508301],[45.052166,31.489168],[45.050563,31.472765],[45.042549,31.459094],[45.039343,31.444053],[45.039343,31.431745],[45.031329,31.418068],[45.018507,31.401653],[45.007287,31.38113],[44.999273,31.367445],[44.994464,31.349652],[44.98645,31.319533],[44.978436,31.305839],[44.964011,31.290774],[44.955996,31.288035],[44.92394,31.308578],[44.899898,31.322271],[44.882267,31.34007],[44.867841,31.360602],[44.855019,31.377024],[44.843799,31.389339],[44.827771,31.400285],[44.821359,31.404389],[44.775334,31.409132],[44.779686,31.398917],[44.771672,31.378393],[44.712367,31.260636],[44.675502,31.194848],[44.643446,31.142733],[44.624212,31.127641],[44.606581,31.108431],[44.592156,31.083726],[44.579333,31.045283],[44.571319,30.984841],[44.563305,30.964227],[44.552085,30.935361],[44.545674,30.916111],[44.534454,30.892732],[44.454313,30.80604],[44.362952,30.711003],[44.278002,30.629665],[44.257165,30.607595],[44.152982,30.412889],[44.116117,30.321616],[44.109706,30.293941],[44.096883,30.264874],[44.088869,30.245491],[44.080855,30.223334],[44.071238,30.203943],[44.039181,30.134657],[44.031167,30.115249],[44.011933,30.095836],[43.955835,30.0348],[43.898133,29.954287],[43.814786,29.850078],[43.813584,29.850981],[43.813614,29.850955]]]}},
  {"type":"Feature","properties":{"code":"EMA","name":"Amarah","governorate":"Maysan","iso":"IQ-MA"},"geometry":{"type":"Polygon","coordinates":[[[47.13804,31.162108],[47.169496,31.227748],[47.198347,31.253785],[47.223992,31.272966],[47.252843,31.285295],[47.294516,31.292144],[47.332984,31.297622],[47.369849,31.300361],[47.403508,31.300361],[47.448387,31.298992],[47.482046,31.294883],[47.499678,31.289404],[47.531734,31.288035],[47.578216,31.286665],[47.613478,31.286665],[47.639123,31.285295],[47.677591,31.281186],[47.695537,31.278826],[47.70003,31.407125],[47.704839,31.424907],[47.709647,31.446788],[47.717662,31.468664],[47.730484,31.493269],[47.743307,31.513767],[47.759335,31.539726],[47.770555,31.565677],[47.776966,31.584795],[47.788186,31.609368],[47.794597,31.629842],[47.802611,31.663954],[47.812228,31.688507],[47.861659,31.790059],[47.86416,31.857309],[47.852876,31.86515],[47.836463,31.872119],[47.821076,31.876475],[47.811843,31.88867],[47.809792,31.899992],[47.80774,31.913054],[47.794405,31.937432],[47.78825,31.946137],[47.765682,31.95223],[47.753372,31.962674],[47.749269,31.978338],[47.748243,31.993129],[47.73183,32.003568],[47.725676,32.014876],[47.722598,32.028792],[47.720547,32.048792],[47.715418,32.059225],[47.689772,32.06618],[47.678489,32.081826],[47.678489,32.097469],[47.674385,32.111372],[47.635405,32.138304],[47.622069,32.150463],[47.599501,32.166095],[47.591295,32.156543],[47.574882,32.155674],[47.555392,32.161753],[47.55334,32.177383],[47.549237,32.21471],[47.555392,32.223388],[47.576934,32.236405],[47.583088,32.248551],[47.581037,32.261564],[47.562572,32.280646],[47.54103,32.293654],[47.525643,32.301458],[47.518463,32.317063],[47.52154,32.330066],[47.523592,32.340467],[47.518463,32.353466],[47.499998,32.354333],[47.47743,32.359532],[47.469224,32.368197],[47.458966,32.383791],[47.453837,32.402847],[47.458966,32.413239],[47.47025,32.421899],[47.475379,32.431423],[47.47025,32.441813],[47.459992,32.453066],[47.443579,32.460856],[47.430243,32.476435],[47.405624,32.499797],[47.393314,32.513638],[47.358437,32.516233],[47.345101,32.521423],[47.315353,32.54045],[47.291759,32.529208],[47.269191,32.509313],[47.220979,32.508448],[47.19123,32.503258],[47.164559,32.506718],[47.149172,32.517963],[47.123527,32.532667],[47.101985,32.543044],[47.081469,32.550827],[47.071211,32.562067],[47.054798,32.576763],[47.03223,32.596643],[46.994275,32.625157],[46.966578,32.643299],[46.941959,32.657118],[46.909133,32.668345],[46.889643,32.676116],[46.871178,32.695973],[46.843482,32.717552],[46.811682,32.753793],[46.79732,32.771908],[46.780907,32.794331],[46.759365,32.814162],[46.704998,32.840022],[46.67012,32.851226],[46.644475,32.861567],[46.627036,32.873629],[46.603443,32.892581],[46.591133,32.9055],[46.583952,32.916696],[46.573694,32.906362],[46.551127,32.886551],[46.540868,32.872767],[46.544972,32.862428],[46.553178,32.85295],[46.563436,32.844332],[46.563436,32.838299],[46.559333,32.821921],[46.547023,32.807265],[46.538817,32.794331],[46.529585,32.779671],[46.525481,32.760695],[46.522404,32.734812],[46.517275,32.716689],[46.512146,32.698563],[46.505991,32.680433],[46.496759,32.658845],[46.490604,32.641571],[46.488552,32.553421],[46.488552,32.549962],[46.486501,32.539585],[46.473165,32.528343],[46.461881,32.525748],[46.454701,32.516233],[46.449572,32.498067],[46.441365,32.479896],[46.434185,32.465184],[46.421875,32.440081],[46.402384,32.423631],[46.390075,32.417569],[46.389049,32.400249],[46.398281,32.378593],[46.406488,32.36733],[46.427004,32.350867],[46.45983,32.323132],[46.45983,32.313596],[46.45983,32.305793],[46.45983,32.294521],[46.460855,32.283247],[46.468036,32.275442],[46.477268,32.269371],[46.49163,32.264166],[46.508043,32.256359],[46.520352,32.245081],[46.522404,32.23814],[46.522404,32.225992],[46.522404,32.216446],[46.519326,32.212106],[46.516249,32.200823],[46.510094,32.196482],[46.497785,32.190406],[46.481372,32.186065],[46.45983,32.178251],[46.437262,32.170437],[46.410591,32.165227],[46.386997,32.159148],[46.368533,32.147858],[46.36443,32.129617],[46.36443,32.107897],[46.373662,32.089648],[46.38392,32.07748],[46.395204,32.067049],[46.400333,32.054009],[46.39623,32.042705],[46.380843,32.03401],[46.366481,32.025313],[46.368533,32.012267],[46.374688,32.003568],[46.376739,31.988779],[46.373662,31.985299],[46.349043,31.982688],[46.32032,31.980078],[46.316217,31.971376],[46.32032,31.959193],[46.33981,31.947007],[46.360326,31.935691],[46.381868,31.926114],[46.412643,31.879959],[46.423926,31.854695],[46.430081,31.837267],[46.437262,31.811991],[46.44752,31.732631],[46.455726,31.709944],[46.469062,31.693362],[46.484449,31.681141],[46.501888,31.668046],[46.526507,31.64709],[46.53061,31.635737],[46.535739,31.623509],[46.548049,31.612153],[46.563436,31.596427],[46.588056,31.582446],[46.598314,31.576329],[46.609598,31.562345],[46.615752,31.54661],[46.619856,31.530873],[46.61883,31.505514],[46.61883,31.496767],[46.614727,31.48802],[46.609598,31.478397],[46.603443,31.467024],[46.603443,31.453898],[46.605494,31.442522],[46.607546,31.432019],[46.616778,31.418013],[46.632165,31.404881],[46.635243,31.40313],[46.680378,31.375109],[46.695765,31.364598],[46.718333,31.355839],[46.736798,31.347078],[46.750133,31.338317],[46.759365,31.32605],[46.760391,31.253292],[46.761417,31.241891],[46.766546,31.22698],[46.773727,31.217331],[46.785011,31.208557],[46.805527,31.203293],[46.819888,31.191009],[46.82912,31.176089],[46.836301,31.165557],[46.846559,31.15239],[46.863998,31.146244],[46.89272,31.140099],[46.976836,31.138343],[46.991198,31.150634],[46.999404,31.154145],[47.066082,31.159412],[47.13804,31.162108]]]}}
 ]}
